{"type": "FeatureCollection", "features": [ {"type": "Feature", "properties": {"norad_id": 66483, "name": "STARLINK-35654", "group": "last-30-days", "lat": 1.9542281716024377, "lon": 89.70967514141749, "alt_km": 414.33506828734335, "timestamp": "2025-12-09T21:34:10.195020+00:00", "meta": {"OBJECT_NAME": "STARLINK-35654", "OBJECT_ID": "2025-262AD", "EPOCH": "2025-12-09T15:22:24.581856", "MEAN_MOTION": 15.50598746, "ECCENTRICITY": 0.0001556, "INCLINATION": 43.001, "RA_OF_ASC_NODE": 89.1218, "ARG_OF_PERICENTER": 275.5543, "MEAN_ANOMALY": 84.514, "EPHEMERIS_TYPE": 0, "CLASSIFICATION_TYPE": "U", "NORAD_CAT_ID": 66483, "ELEMENT_SET_NO": 999, "REV_AT_EPOCH": 508, "BSTAR": 0.00086382507, "MEAN_MOTION_DOT": 0.00050699, "MEAN_MOTION_DDOT": 0}, "tle": {"line1": "1 66483U 25262AD  25343.64056229  .00050699  00000+0  86383-3 0  9994", "line2": "2 66483  43.0010  89.1218 0001556 275.5543  84.5140 15.50598746  5089"}}, "geometry": {"type": "Point", "coordinates": [89.70967514141749, 1.9542281716024377]}}, {"type": "Feature", "properties": {"norad_id": 66484, "name": "STARLINK-35371", "group": "last-30-days", "lat": 3.299170900051142, "lon": 91.15365156666776, "alt_km": 414.0030375280803, "timestamp": "2025-12-09T21:34:10.195033+00:00", "meta": {"OBJECT_NAME": "STARLINK-35371", "OBJECT_ID": "2025-262AE", "EPOCH": "2025-12-09T15:21:54.962208", "MEAN_MOTION": 15.50635147, "ECCENTRICITY": 0.00016236, "INCLINATION": 43.0003, "RA_OF_ASC_NODE": 89.1197, "ARG_OF_PERICENTER": 271.4011, "MEAN_ANOMALY": 88.6663, "EPHEMERIS_TYPE": 0, "CLASSIFICATION_TYPE": "U", "NORAD_CAT_ID": 66484, "ELEMENT_SET_NO": 999, "REV_AT_EPOCH": 508, "BSTAR": 0.0026267077, "MEAN_MOTION_DOT": 0.00157203, "MEAN_MOTION_DDOT": 0}, "tle": {"line1": "1 66484U 25262AE  25343.64021947  .00157203  00000+0  26267-2 0  9997", "line2": "2 66484  43.0003  89.1197 0001623 271.4011  88.6663 15.50635147  5080"}}, "geometry": {"type": "Point", "coordinates": [91.15365156666776, 3.299170900051142]}}, {"type": "Feature", "properties": {"norad_id": 66485, "name": "STARLINK-34774", "group": "last-30-days", "lat": -34.410413648731755, "lon": 9.12135764744693, "alt_km": 430.5155523542862, "timestamp": "2025-12-09T21:34:10.195045+00:00", "meta": {"OBJECT_NAME": "STARLINK-34774", "OBJECT_ID": "2025-263A", "EPOCH": "2025-12-09T14:00:01.999872", "MEAN_MOTION": 15.47468188, "ECCENTRICITY": 0.00012979, "INCLINATION": 43.0003, "RA_OF_ASC_NODE": 143.6428, "ARG_OF_PERICENTER": 262.536, "MEAN_ANOMALY": 15.2323, "EPHEMERIS_TYPE": 0, "CLASSIFICATION_TYPE": "U", "NORAD_CAT_ID": 66485, "ELEMENT_SET_NO": 999, "REV_AT_EPOCH": 512, "BSTAR": -0.04459081, "MEAN_MOTION_DOT": -0.02081953, "MEAN_MOTION_DDOT": 0}, "tle": {"line1": "1 66485U 25263A   25343.58335648 -.02081953  00000+0 -44591-1 0  9999", "line2": "2 66485  43.0003 143.6428 0001297 262.5360  15.2323 15.47468188  5128"}}, "geometry": {"type": "Point", "coordinates": [9.12135764744693, -34.410413648731755]}}, {"type": "Feature", "properties": {"norad_id": 66486, "name": "STARLINK-34844", "group": "last-30-days", "lat": -38.579710907266076, "lon": 20.65811801739789, "alt_km": 417.4208149917149, "timestamp": "2025-12-09T21:34:10.195056+00:00", "meta": {"OBJECT_NAME": "STARLINK-34844", "OBJECT_ID": "2025-263B", "EPOCH": "2025-12-09T14:00:01.999872", "MEAN_MOTION": 15.50572039, "ECCENTRICITY": 0.00014515, "INCLINATION": 43.0003, "RA_OF_ASC_NODE": 143.6281, "ARG_OF_PERICENTER": 268.2613, "MEAN_ANOMALY": 15.3529, "EPHEMERIS_TYPE": 0, "CLASSIFICATION_TYPE": "U", "NORAD_CAT_ID": 66486, "ELEMENT_SET_NO": 999, "REV_AT_EPOCH": 508, "BSTAR": -0.00080763772, "MEAN_MOTION_DOT": -0.00047424, "MEAN_MOTION_DDOT": 0}, "tle": {"line1": "1 66486U 25263B   25343.58335648 -.00047424  00000+0 -80764-3 0  9997", "line2": "2 66486  43.0003 143.6281 0001451 268.2613  15.3529 15.50572039  5081"}}, "geometry": {"type": "Point", "coordinates": [20.65811801739789, -38.579710907266076]}}, {"type": "Feature", "properties": {"norad_id": 66487, "name": "STARLINK-34733", "group": "last-30-days", "lat": -39.235042784116494, "lon": 22.97955900026657, "alt_km": 417.4661609215591, "timestamp": "2025-12-09T21:34:10.195066+00:00", "meta": {"OBJECT_NAME": "STARLINK-34733", "OBJECT_ID": "2025-263C", "EPOCH": "2025-12-09T14:00:01.999872", "MEAN_MOTION": 15.50577941, "ECCENTRICITY": 0.00013994, "INCLINATION": 43.0003, "RA_OF_ASC_NODE": 143.6239, "ARG_OF_PERICENTER": 264.9276, "MEAN_ANOMALY": 20.6121, "EPHEMERIS_TYPE": 0, "CLASSIFICATION_TYPE": "U", "NORAD_CAT_ID": 66487, "ELEMENT_SET_NO": 999, "REV_AT_EPOCH": 512, "BSTAR": -0.0011104276, "MEAN_MOTION_DOT": -0.00064944, "MEAN_MOTION_DDOT": 0}, "tle": {"line1": "1 66487U 25263C   25343.58335648 -.00064944  00000+0 -11104-2 0  9995", "line2": "2 66487  43.0003 143.6239 0001399 264.9276  20.6121 15.50577941  5123"}}, "geometry": {"type": "Point", "coordinates": [22.97955900026657, -39.235042784116494]}}, {"type": "Feature", "properties": {"norad_id": 66488, "name": "STARLINK-35515", "group": "last-30-days", "lat": -39.842904194638315, "lon": 25.34055232356043, "alt_km": 417.45673480917503, "timestamp": "2025-12-09T21:34:10.195076+00:00", "meta": {"OBJECT_NAME": "STARLINK-35515", "OBJECT_ID": "2025-263D", "EPOCH": "2025-12-09T14:00:01.999872", "MEAN_MOTION": 15.50619897, "ECCENTRICITY": 0.00013865, "INCLINATION": 43.0003, "RA_OF_ASC_NODE": 143.6186, "ARG_OF_PERICENTER": 263.2082, "MEAN_ANOMALY": 24.2278, "EPHEMERIS_TYPE": 0, "CLASSIFICATION_TYPE": "U", "NORAD_CAT_ID": 66488, "ELEMENT_SET_NO": 999, "REV_AT_EPOCH": 512, "BSTAR": -0.0020020942, "MEAN_MOTION_DOT": -0.00116236, "MEAN_MOTION_DDOT": 0}, "tle": {"line1": "1 66488U 25263D   25343.58335648 -.00116236  00000+0 -20021-2 0  9996", "line2": "2 66488  43.0003 143.6186 0001386 263.2082  24.2278 15.50619897  5128"}}, "geometry": {"type": "Point", "coordinates": [25.34055232356043, -39.842904194638315]}}, {"type": "Feature", "properties": {"norad_id": 66489, "name": "STARLINK-35696", "group": "last-30-days", "lat": -40.39390555675638, "lon": 27.705822496939458, "alt_km": 417.41332839204824, "timestamp": "2025-12-09T21:34:10.195086+00:00", "meta": {"OBJECT_NAME": "STARLINK-35696", "OBJECT_ID": "2025-263E", "EPOCH": "2025-12-09T14:00:01.999872", "MEAN_MOTION": 15.50572981, "ECCENTRICITY": 0.00014693, "INCLINATION": 43.0005, "RA_OF_ASC_NODE": 143.6139, "ARG_OF_PERICENTER": 267.6759, "MEAN_ANOMALY": 21.6792, "EPHEMERIS_TYPE": 0, "CLASSIFICATION_TYPE": "U", "NORAD_CAT_ID": 66489, "ELEMENT_SET_NO": 999, "REV_AT_EPOCH": 512, "BSTAR": -0.00046878876, "MEAN_MOTION_DOT": -0.0002774, "MEAN_MOTION_DDOT": 0}, "tle": {"line1": "1 66489U 25263E   25343.58335648 -.00027740  00000+0 -46879-3 0  9998", "line2": "2 66489  43.0005 143.6139 0001469 267.6759  21.6792 15.50572981  5124"}}, "geometry": {"type": "Point", "coordinates": [27.705822496939458, -40.39390555675638]}}, {"type": "Feature", "properties": {"norad_id": 66490, "name": "STARLINK-35693", "group": "last-30-days", "lat": -40.901389908642905, "lon": 30.138737723696327, "alt_km": 417.3676613363059, "timestamp": "2025-12-09T21:34:10.195096+00:00", "meta": {"OBJECT_NAME": "STARLINK-35693", "OBJECT_ID": "2025-263F", "EPOCH": "2025-12-09T14:00:01.999872", "MEAN_MOTION": 15.50600479, "ECCENTRICITY": 0.0001543, "INCLINATION": 43.0004, "RA_OF_ASC_NODE": 143.6094, "ARG_OF_PERICENTER": 264.0913, "MEAN_ANOMALY": 27.1689, "EPHEMERIS_TYPE": 0, "CLASSIFICATION_TYPE": "U", "NORAD_CAT_ID": 66490, "ELEMENT_SET_NO": 999, "REV_AT_EPOCH": 512, "BSTAR": -0.0012859842, "MEAN_MOTION_DOT": -0.00075122, "MEAN_MOTION_DDOT": 0}, "tle": {"line1": "1 66490U 25263F   25343.58335648 -.00075122  00000+0 -12860-2 0  9999", "line2": "2 66490  43.0004 143.6094 0001543 264.0913  27.1689 15.50600479  5121"}}, "geometry": {"type": "Point", "coordinates": [30.138737723696327, -40.901389908642905]}}, {"type": "Feature", "properties": {"norad_id": 66491, "name": "STARLINK-35663", "group": "last-30-days", "lat": -41.75888640443131, "lon": 35.10891854501471, "alt_km": 417.4738468829337, "timestamp": "2025-12-09T21:34:10.195106+00:00", "meta": {"OBJECT_NAME": "STARLINK-35663", "OBJECT_ID": "2025-263G", "EPOCH": "2025-12-09T14:00:01.999872", "MEAN_MOTION": 15.50574636, "ECCENTRICITY": 0.00014936, "INCLINATION": 43.0004, "RA_OF_ASC_NODE": 143.5993, "ARG_OF_PERICENTER": 265.6223, "MEAN_ANOMALY": 29.5026, "EPHEMERIS_TYPE": 0, "CLASSIFICATION_TYPE": "U", "NORAD_CAT_ID": 66491, "ELEMENT_SET_NO": 999, "REV_AT_EPOCH": 512, "BSTAR": -0.00099951009, "MEAN_MOTION_DOT": -0.00058532, "MEAN_MOTION_DDOT": 0}, "tle": {"line1": "1 66491U 25263G   25343.58335648 -.00058532  00000+0 -99951-3 0  9993", "line2": "2 66491  43.0004 143.5993 0001493 265.6223  29.5026 15.50574636  5120"}}, "geometry": {"type": "Point", "coordinates": [35.10891854501471, -41.75888640443131]}}, {"type": "Feature", "properties": {"norad_id": 66492, "name": "STARLINK-35673", "group": "last-30-days", "lat": -41.21290662143227, "lon": 31.79056766007823, "alt_km": 427.02229519837874, "timestamp": "2025-12-09T21:34:10.195119+00:00", "meta": {"OBJECT_NAME": "STARLINK-35673", "OBJECT_ID": "2025-263H", "EPOCH": "2025-12-09T14:00:01.999872", "MEAN_MOTION": 15.48690726, "ECCENTRICITY": 0.00015809, "INCLINATION": 43.0003, "RA_OF_ASC_NODE": 143.5978, "ARG_OF_PERICENTER": 266.5586, "MEAN_ANOMALY": 28.9765, "EPHEMERIS_TYPE": 0, "CLASSIFICATION_TYPE": "U", "NORAD_CAT_ID": 66492, "ELEMENT_SET_NO": 999, "REV_AT_EPOCH": 512, "BSTAR": -0.04329521, "MEAN_MOTION_DOT": -0.02107556, "MEAN_MOTION_DDOT": 0}, "tle": {"line1": "1 66492U 25263H   25343.58335648 -.02107556  00000+0 -43295-1 0  9995", "line2": "2 66492  43.0003 143.5978 0001580 266.5586  28.9765 15.48690726  5121"}}, "geometry": {"type": "Point", "coordinates": [31.79056766007823, -41.21290662143227]}}]}